CCSDS_OMM_VERS = 2.0
CREATION_DATE  = 
ORIGINATOR     = 

OBJECT_NAME    = STARLINK-37066
OBJECT_ID      = 2026-042N
CENTER_NAME    = EARTH
REF_FRAME      = TEME
TIME_SYSTEM    = UTC
MEAN_ELEMENT_THEORY = SGP/SGP4

EPOCH          = 2026-03-14T12:00:02.000160
MEAN_MOTION    = 15.89120334
ECCENTRICITY   = .00007925
INCLINATION    = 53.1596
RA_OF_ASC_NODE = 170.6538
ARG_OF_PERICENTER = 73.0338
MEAN_ANOMALY   = 291.0198

EPHEMERIS_TYPE = 0
CLASSIFICATION_TYPE = U
NORAD_CAT_ID   = 68081
ELEMENT_SET_NO = 999
REV_AT_EPOCH   = 282
BSTAR          = -.56579544E-2
MEAN_MOTION_DOT = -.1446298E-1
MEAN_MOTION_DDOT = 0

CCSDS_OMM_VERS = 2.0
CREATION_DATE  = 
ORIGINATOR     = 

OBJECT_NAME    = STARLINK-37054
OBJECT_ID      = 2026-042P
CENTER_NAME    = EARTH
REF_FRAME      = TEME
TIME_SYSTEM    = UTC
MEAN_ELEMENT_THEORY = SGP/SGP4

EPOCH          = 2026-03-14T12:00:02.000160
MEAN_MOTION    = 15.89364398
ECCENTRICITY   = .00010338
INCLINATION    = 53.1593
RA_OF_ASC_NODE = 170.6404
ARG_OF_PERICENTER = 69.9032
MEAN_ANOMALY   = 300.4707

EPHEMERIS_TYPE = 0
CLASSIFICATION_TYPE = U
NORAD_CAT_ID   = 68082
ELEMENT_SET_NO = 999
REV_AT_EPOCH   = 282
BSTAR          = -.5626892E-2
MEAN_MOTION_DOT = -.1455245E-1
MEAN_MOTION_DDOT = 0

CCSDS_OMM_VERS = 2.0
CREATION_DATE  = 
ORIGINATOR     = 

OBJECT_NAME    = STARLINK-37065
OBJECT_ID      = 2026-042Q
CENTER_NAME    = EARTH
REF_FRAME      = TEME
TIME_SYSTEM    = UTC
MEAN_ELEMENT_THEORY = SGP/SGP4

EPOCH          = 2026-03-14T12:00:02.000160
MEAN_MOTION    = 15.89473203
ECCENTRICITY   = .00009264
INCLINATION    = 53.1596
RA_OF_ASC_NODE = 170.6337
ARG_OF_PERICENTER = 78.1477
MEAN_ANOMALY   = 295.4990

EPHEMERIS_TYPE = 0
CLASSIFICATION_TYPE = U
NORAD_CAT_ID   = 68083
ELEMENT_SET_NO = 999
REV_AT_EPOCH   = 282
BSTAR          = -.55821765E-2
MEAN_MOTION_DOT = -.1452128E-1
MEAN_MOTION_DDOT = 0

CCSDS_OMM_VERS = 2.0
CREATION_DATE  = 
ORIGINATOR     = 

OBJECT_NAME    = STARLINK-37037
OBJECT_ID      = 2026-042R
CENTER_NAME    = EARTH
REF_FRAME      = TEME
TIME_SYSTEM    = UTC
MEAN_ELEMENT_THEORY = SGP/SGP4

EPOCH          = 2026-03-14T12:00:02.000160
MEAN_MOTION    = 15.89574664
ECCENTRICITY   = .0000805
INCLINATION    = 53.1590
RA_OF_ASC_NODE = 170.6266
ARG_OF_PERICENTER = 79.4328
MEAN_ANOMALY   = 297.6178

EPHEMERIS_TYPE = 0
CLASSIFICATION_TYPE = U
NORAD_CAT_ID   = 68084
ELEMENT_SET_NO = 999
REV_AT_EPOCH   = 282
BSTAR          = -.55509175E-2
MEAN_MOTION_DOT = -.1451511E-1
MEAN_MOTION_DDOT = 0

CCSDS_OMM_VERS = 2.0
CREATION_DATE  = 
ORIGINATOR     = 

OBJECT_NAME    = STARLINK-37068
OBJECT_ID      = 2026-042S
CENTER_NAME    = EARTH
REF_FRAME      = TEME
TIME_SYSTEM    = UTC
MEAN_ELEMENT_THEORY = SGP/SGP4

EPOCH          = 2026-03-14T12:00:02.000160
MEAN_MOTION    = 15.89706278
ECCENTRICITY   = .00008533
INCLINATION    = 53.1590
RA_OF_ASC_NODE = 170.6208
ARG_OF_PERICENTER = 70.6973
MEAN_ANOMALY   = 309.1599

EPHEMERIS_TYPE = 0
CLASSIFICATION_TYPE = U
NORAD_CAT_ID   = 68085
ELEMENT_SET_NO = 999
REV_AT_EPOCH   = 282
BSTAR          = -.5443616E-2
MEAN_MOTION_DOT = -.1435579E-1
MEAN_MOTION_DDOT = 0

CCSDS_OMM_VERS = 2.0
CREATION_DATE  = 
ORIGINATOR     = 

OBJECT_NAME    = STARLINK-37067
OBJECT_ID      = 2026-042T
CENTER_NAME    = EARTH
REF_FRAME      = TEME
TIME_SYSTEM    = UTC
MEAN_ELEMENT_THEORY = SGP/SGP4

EPOCH          = 2026-03-14T12:00:02.000160
MEAN_MOTION    = 15.89798554
ECCENTRICITY   = .00008845
INCLINATION    = 53.1591
RA_OF_ASC_NODE = 170.6135
ARG_OF_PERICENTER = 72.2508
MEAN_ANOMALY   = 311.1842

EPHEMERIS_TYPE = 0
CLASSIFICATION_TYPE = U
NORAD_CAT_ID   = 68086
ELEMENT_SET_NO = 999
REV_AT_EPOCH   = 282
BSTAR          = -.54581375E-2
MEAN_MOTION_DOT = -.1444855E-1
MEAN_MOTION_DDOT = 0

CCSDS_OMM_VERS = 2.0
CREATION_DATE  = 
ORIGINATOR     = 

OBJECT_NAME    = STARLINK-37062
OBJECT_ID      = 2026-042U
CENTER_NAME    = EARTH
REF_FRAME      = TEME
TIME_SYSTEM    = UTC
MEAN_ELEMENT_THEORY = SGP/SGP4

EPOCH          = 2026-03-14T12:00:02.000160
MEAN_MOTION    = 15.89915940
ECCENTRICITY   = .00008587
INCLINATION    = 53.1592
RA_OF_ASC_NODE = 170.6066
ARG_OF_PERICENTER = 72.9796
MEAN_ANOMALY   = 313.7055

EPHEMERIS_TYPE = 0
CLASSIFICATION_TYPE = U
NORAD_CAT_ID   = 68087
ELEMENT_SET_NO = 999
REV_AT_EPOCH   = 282
BSTAR          = -.54793532E-2
MEAN_MOTION_DOT = -.14573E-1
MEAN_MOTION_DDOT = 0

CCSDS_OMM_VERS = 2.0
CREATION_DATE  = 
ORIGINATOR     = 

OBJECT_NAME    = STARLINK-37059
OBJECT_ID      = 2026-042V
CENTER_NAME    = EARTH
REF_FRAME      = TEME
TIME_SYSTEM    = UTC
MEAN_ELEMENT_THEORY = SGP/SGP4

EPOCH          = 2026-03-14T12:00:02.000160
MEAN_MOTION    = 15.90006452
ECCENTRICITY   = .00009191
INCLINATION    = 53.1592
RA_OF_ASC_NODE = 170.5994
ARG_OF_PERICENTER = 68.2391
MEAN_ANOMALY   = 321.9186

EPHEMERIS_TYPE = 0
CLASSIFICATION_TYPE = U
NORAD_CAT_ID   = 68088
ELEMENT_SET_NO = 999
REV_AT_EPOCH   = 282
BSTAR          = -.54263908E-2
MEAN_MOTION_DOT = -.1450993E-1
MEAN_MOTION_DDOT = 0

CCSDS_OMM_VERS = 2.0
CREATION_DATE  = 
ORIGINATOR     = 

OBJECT_NAME    = STARLINK-37004
OBJECT_ID      = 2026-042W
CENTER_NAME    = EARTH
REF_FRAME      = TEME
TIME_SYSTEM    = UTC
MEAN_ELEMENT_THEORY = SGP/SGP4

EPOCH          = 2026-03-14T12:00:02.000160
MEAN_MOTION    = 15.90118355
ECCENTRICITY   = .00008622
INCLINATION    = 53.1594
RA_OF_ASC_NODE = 170.5933
ARG_OF_PERICENTER = 74.2613
MEAN_ANOMALY   = 319.0849

EPHEMERIS_TYPE = 0
CLASSIFICATION_TYPE = U
NORAD_CAT_ID   = 68089
ELEMENT_SET_NO = 999
REV_AT_EPOCH   = 282
BSTAR          = -.53849442E-2
MEAN_MOTION_DOT = -.1448565E-1
MEAN_MOTION_DDOT = 0

CCSDS_OMM_VERS = 2.0
CREATION_DATE  = 
ORIGINATOR     = 

OBJECT_NAME    = STARLINK-36320
OBJECT_ID      = 2026-042X
CENTER_NAME    = EARTH
REF_FRAME      = TEME
TIME_SYSTEM    = UTC
MEAN_ELEMENT_THEORY = SGP/SGP4

EPOCH          = 2026-03-14T12:00:02.000160
MEAN_MOTION    = 15.90316908
ECCENTRICITY   = .00009627
INCLINATION    = 53.1594
RA_OF_ASC_NODE = 170.5785
ARG_OF_PERICENTER = 72.3236
MEAN_ANOMALY   = 328.0232

EPHEMERIS_TYPE = 0
CLASSIFICATION_TYPE = U
NORAD_CAT_ID   = 68090
ELEMENT_SET_NO = 999
REV_AT_EPOCH   = 281
BSTAR          = -.5415023E-2
MEAN_MOTION_DOT = -.1468632E-1
MEAN_MOTION_DDOT = 0

CCSDS_OMM_VERS = 2.0
CREATION_DATE  = 
ORIGINATOR     = 

OBJECT_NAME    = STARLINK-36324
OBJECT_ID      = 2026-042Y
CENTER_NAME    = EARTH
REF_FRAME      = TEME
TIME_SYSTEM    = UTC
MEAN_ELEMENT_THEORY = SGP/SGP4

EPOCH          = 2026-03-14T12:00:02.000160
MEAN_MOTION    = 15.90205758
ECCENTRICITY   = .00009275
INCLINATION    = 53.1592
RA_OF_ASC_NODE = 170.5852
ARG_OF_PERICENTER = 68.4145
MEAN_ANOMALY   = 328.5886

EPHEMERIS_TYPE = 0
CLASSIFICATION_TYPE = U
NORAD_CAT_ID   = 68091
ELEMENT_SET_NO = 999
REV_AT_EPOCH   = 281
BSTAR          = -.5398529E-2
MEAN_MOTION_DOT = -.145747E-1
MEAN_MOTION_DDOT = 0

CCSDS_OMM_VERS = 2.0
CREATION_DATE  = 
ORIGINATOR     = 

OBJECT_NAME    = STARLINK-36896
OBJECT_ID      = 2026-042Z
CENTER_NAME    = EARTH
REF_FRAME      = TEME
TIME_SYSTEM    = UTC
MEAN_ELEMENT_THEORY = SGP/SGP4

EPOCH          = 2026-03-14T12:00:02.000160
MEAN_MOTION    = 15.90423159
ECCENTRICITY   = .00009492
INCLINATION    = 53.1590
RA_OF_ASC_NODE = 170.5718
ARG_OF_PERICENTER = 73.5142
MEAN_ANOMALY   = 330.0052

EPHEMERIS_TYPE = 0
CLASSIFICATION_TYPE = U
NORAD_CAT_ID   = 68092
ELEMENT_SET_NO = 999
REV_AT_EPOCH   = 282
BSTAR          = -.53510659E-2
MEAN_MOTION_DOT = -.1460539E-1
MEAN_MOTION_DDOT = 0

CCSDS_OMM_VERS = 2.0
CREATION_DATE  = 
ORIGINATOR     = 

OBJECT_NAME    = STARLINK-36251
OBJECT_ID      = 2026-042AA
CENTER_NAME    = EARTH
REF_FRAME      = TEME
TIME_SYSTEM    = UTC
MEAN_ELEMENT_THEORY = SGP/SGP4

EPOCH          = 2026-03-14T12:00:02.000160
MEAN_MOTION    = 15.90641726
ECCENTRICITY   = .00009667
INCLINATION    = 53.1590
RA_OF_ASC_NODE = 170.5581
ARG_OF_PERICENTER = 70.1653
MEAN_ANOMALY   = 339.8951

EPHEMERIS_TYPE = 0
CLASSIFICATION_TYPE = U
NORAD_CAT_ID   = 68093
ELEMENT_SET_NO = 999
REV_AT_EPOCH   = 281
BSTAR          = -.53401349E-2
MEAN_MOTION_DOT = -.1472337E-1
MEAN_MOTION_DDOT = 0

CCSDS_OMM_VERS = 2.0
CREATION_DATE  = 
ORIGINATOR     = 

OBJECT_NAME    = STARLINK-36787
OBJECT_ID      = 2026-042AB
CENTER_NAME    = EARTH
REF_FRAME      = TEME
TIME_SYSTEM    = UTC
MEAN_ELEMENT_THEORY = SGP/SGP4

EPOCH          = 2026-03-14T12:00:02.000160
MEAN_MOTION    = 15.90711403
ECCENTRICITY   = .00008154
INCLINATION    = 53.1587
RA_OF_ASC_NODE = 170.5389
ARG_OF_PERICENTER = 74.7242
MEAN_ANOMALY   = 344.3319

EPHEMERIS_TYPE = 0
CLASSIFICATION_TYPE = U
NORAD_CAT_ID   = 68094
ELEMENT_SET_NO = 999
REV_AT_EPOCH   = 281
BSTAR          = -.53835981E-2
MEAN_MOTION_DOT = -.1487187E-1
MEAN_MOTION_DDOT = 0

CCSDS_OMM_VERS = 2.0
CREATION_DATE  = 
ORIGINATOR     = 

OBJECT_NAME    = STARLINK-36790
OBJECT_ID      = 2026-042AC
CENTER_NAME    = EARTH
REF_FRAME      = TEME
TIME_SYSTEM    = UTC
MEAN_ELEMENT_THEORY = SGP/SGP4

EPOCH          = 2026-03-14T12:00:02.000160
MEAN_MOTION    = 15.90541834
ECCENTRICITY   = .000081
INCLINATION    = 53.1591
RA_OF_ASC_NODE = 170.5651
ARG_OF_PERICENTER = 73.6975
MEAN_ANOMALY   = 332.9549

EPHEMERIS_TYPE = 0
CLASSIFICATION_TYPE = U
NORAD_CAT_ID   = 68095
ELEMENT_SET_NO = 999
REV_AT_EPOCH   = 281
BSTAR          = -.53487596E-2
MEAN_MOTION_DOT = -.1467667E-1
MEAN_MOTION_DDOT = 0

